BEIDOU-2 IGSO-1 (C06)   
1 36828U 10036A   26256.66970756 -.00000130  00000+0  00000+0 0  9997
2 36828  54.3037 162.1610 0058541 217.4777 320.7749  1.00289463 58981
BEIDOU-2 G4 (C04)       
1 37210U 10057A   26280.77185347 -.00000124  00000+0  00000+0 0  9992
2 37210   3.9221  68.1289 0009181 182.8215 203.3599  1.00272492 58429
BEIDOU-2 IGSO-2 (C07)   
1 37256U 10068A   26280.60017985 -.00000192  00000+0  00000+0 0  9993
2 37256  47.3483 270.4227 0056738 216.6868 208.9950  1.00245457 57928
BEIDOU-2 IGSO-3 (C08)   
1 37384U 11013A   26280.76154008 -.00000192  00000+0  00000+0 0  9991
2 37384  62.5728  39.1010 0035016 185.4861 173.0884  1.00286138 56785
BEIDOU-2 IGSO-4 (C09)   
1 37763U 11038A   26280.62564720 -.00000072  00000+0  00000+0 0  9997
2 37763  54.6013 164.6718 0160752 230.7908 299.6449  1.00263230 55774
BEIDOU-2 IGSO-5 (C10)   
1 37948U 11073A   26280.66785572 -.00000189  00000+0  00000+0 0  9994
2 37948  47.4806 270.1379 0116099 224.5217 217.9780  1.00272514 54263
BEIDOU-2 G5 (C05)       
1 38091U 12008A   26281.10817637  .00000045  00000+0  00000+0 0  9991
2 38091   3.8506  68.8609 0007962 233.4320 172.1523  1.00275216 53501
BEIDOU-2 M3 (C11)       
1 38250U 12018A   26280.94979118 -.00000041  00000+0  00000+0 0  9990
2 38250  55.6577 301.0642 0023630 274.1747  85.5989  1.86229702 98049
BEIDOU-2 M4 (C12)       
1 38251U 12018B   26279.80834867 -.00000031  00000+0  00000+0 0  9994
2 38251  55.5583 300.3079 0014899 274.6973  85.1780  1.86229376 98025
BEIDOU-2 M6 (C14)       
1 38775U 12050B   26280.59138565 -.00000031  00000+0  00000+0 0  9991
2 38775  56.6479  59.1855 0010463   1.6773 358.3193  1.86230743 95404
BEIDOU-2 G6 (C02)       
1 38953U 12059A   26281.04196278 -.00000187  00000+0  00000+0 0  9996
2 38953   4.7023  72.2291 0006493 316.2449  87.3864  1.00272575 51045
BEIDOU-3S IGSO-1S (C31) 
1 40549U 15019A   26280.47014294 -.00000171  00000+0  00000+0 0  9995
2 40549  48.9829 294.0972 0038852 201.3739 146.6824  1.00282499 42190
BEIDOU-3S M2S (C58)     
1 40748U 15037A   26281.08275707 -.00000042  00000+0  00000+0 0  9999
2 40748  54.7682 298.1484 0012184 263.4456  96.4536  1.86231838 76218
BEIDOU-3S M1S (C57)     
1 40749U 15037B   26280.20258102 -.00000034  00000+0  00000+0 0  9994
2 40749  54.7657 298.1646 0001920  31.0924 328.9598  1.86254857 76213
BEIDOU-3S IGSO-2S (C56) 
1 40938U 15053A   26280.90185391 -.00000156  00000+0  00000+0 0  9993
2 40938  49.0557 257.4309 0065225 192.6387 347.5511  1.00278532 40482
BEIDOU-2 IGSO-6 (C13)   
1 41434U 16021A   26280.75199079 -.00000174  00000+0  00000+0 0  9992
2 41434  60.3888  36.9289 0062771 228.9552 117.9044  1.00277369 38602
BEIDOU-2 G7 (C03)       
1 41586U 16037A   26280.97595420 -.00000367  00000+0  00000+0 0  9995
2 41586   1.9957  69.6909 0004740 346.0390  62.8125  1.00272681  8027
BEIDOU-3 M1 (C19)       
1 43001U 17069A   26280.35668204 -.00000028  00000+0  00000+0 0  9992
2 43001  56.7953  59.3974 0007249 317.5592  42.3792  1.86230796 60696
BEIDOU-3 M2 (C20)       
1 43002U 17069B   26280.83265277 -.00000033  00000+0  00000+0 0  9995
2 43002  56.7946  59.4178 0005674 358.7011   1.2897  1.86230425 60687
BEIDOU-3 M7 (C27)       
1 43107U 18003A   26281.11214003 -.00000044  00000+0  00000+0 0  9995
2 43107  54.2246 298.3660 0002866 102.1315 257.9383  1.86227895 59457
BEIDOU-3 M8 (C28)       
1 43108U 18003B   26281.05514977 -.00000044  00000+0  00000+0 0  9992
2 43108  54.2175 298.3489 0004502 265.7696  94.2167  1.86230777 59461
BEIDOU-3 M4 (C22)       
1 43207U 18018A   26280.96194396 -.00000034  00000+0  00000+0 0  9995
2 43207  56.7547  59.4375 0005204  42.7431 317.2891  1.86230869 58846
BEIDOU-3 M3 (C21)       
1 43208U 18018B   26281.02843928 -.00000035  00000+0  00000+0 0  9997
2 43208  56.7542  59.4394 0005185 340.3616  19.6098  1.86230886 58844
BEIDOU-3 M9 (C29)       
1 43245U 18029A   26280.71011465 -.00000039  00000+0  00000+0 0  9992
2 43245  54.0903 296.0011 0001742 243.9344 116.0830  1.86227987 57992
BEIDOU-3 M10 (C30)      
1 43246U 18029B   26280.64390137 -.00000038  00000+0  00000+0 0  9990
2 43246  54.0878 296.0301 0002934  11.4373 348.6050  1.86228953 57979
BEIDOU-2 IGSO-7 (C16)   
1 43539U 18057A   26280.62733896 -.00000123  00000+0  00000+0 0  9992
2 43539  55.2117 162.0945 0107704 236.2530 316.2858  1.00269718 30251
BEIDOU-3 M5 (C23)       
1 43581U 18062A   26280.86791154 -.00000008  00000+0  00000+0 0  9994
2 43581  54.0804 178.4749 0003388 324.2923  35.7384  1.86228654 55733
BEIDOU-3 M6 (C24)       
1 43582U 18062B   26280.19486854 -.00000016  00000+0  00000+0 0  9998
2 43582  54.0802 178.4869 0007083  37.2841 322.8149  1.86228000 55724
BEIDOU-3 M12 (C26)      
1 43602U 18067A   26280.67045476 -.00000009  00000+0  00000+0 0  9992
2 43602  54.1763 177.2276 0009175  39.7410 320.3811  1.86227443 55219
BEIDOU-3 M11 (C25)      
1 43603U 18067B   26280.26884884 -.00000013  00000+0  00000+0 0  9997
2 43603  54.1737 177.2047 0005528  30.6694 329.4158  1.86226979 55238
BEIDOU-3 M13 (C32)      
1 43622U 18072A   26279.68556586 -.00000022  00000+0  00000+0 0  9993
2 43622  56.7270  58.9880 0004092 320.1944  39.7728  1.86230662 54731
BEIDOU-3 M14 (C33)      
1 43623U 18072B   26280.62488816 -.00000032  00000+0  00000+0 0  9991
2 43623  56.7297  58.9515 0003172  21.4031 338.6032  1.86230673 54744
BEIDOU-3 M16 (C35)      
1 43647U 18078A   26280.77861875 -.00000040  00000+0  00000+0 0  9998
2 43647  53.9862 296.0264 0006246  29.0661 331.0038  1.86232292 54259
BEIDOU-3 M15 (C34)      
1 43648U 18078B   26280.37290169 -.00000036  00000+0  00000+0 0  9992
2 43648  53.9822 296.0407 0002815  30.1456 329.9071  1.86227352 54263
BEIDOU-3 G1 (C59)       
1 43683U 18085A   26280.62935177 -.00000122  00000+0  00000+0 0  9998
2 43683   2.6732  94.1858 0004975  28.5930 280.1228  1.00270608 29180
BEIDOU-3 M17 (C36)      
1 43706U 18093A   26280.23638866 -.00000016  00000+0  00000+0 0  9997
2 43706  54.1639 178.4971 0007744 307.5179 212.6140  1.86228235 53620
BEIDOU-3 M18 (C37)      
1 43707U 18093B   26279.86197874 -.00000019  00000+0  00000+0 0  9997
2 43707  54.1647 178.5019 0007192 344.5579  15.4688  1.86226611 53617
BEIDOU-3 IGSO-1 (C38)   
1 44204U 19023A   26279.74386314 -.00000222  00000+0  00000+0 0  9996
2 44204  58.8535  36.5102 0028485 224.7215 139.6223  1.00258920  8334
BEIDOU-2 G8 (C01)       
1 44231U 19027A   26280.91138730 -.00000260  00000+0  00000+0 0  9990
2 44231   1.9387  74.1930 0009032 274.4203 140.6143  1.00273227 27219
BEIDOU-3 IGSO-2 (C39)   
1 44337U 19035A   26280.62347784 -.00000130  00000+0  00000+0 0  9991
2 44337  55.2502 157.8737 0038506 210.2521 351.9976  1.00265565 26799
BEIDOU-3 M24 (C46)      
1 44542U 19061A   26266.50572373 -.00000008  00000+0  00000+0 0  9997
2 44542  54.4306 179.4090 0020747  95.6918 264.5686  1.86175926 47622
BEIDOU-3 M23 (C45)      
1 44543U 19061B   26280.23606115 -.00000016  00000+0  00000+0 0  9995
2 44543  54.3900 178.9192 0006201  11.7948 104.9745  1.86227499 47884
BEIDOU-3 IGSO-3 (C40)   
1 44709U 19073A   26280.40488036 -.00000175  00000+0  00000+0 0  9997
2 44709  54.6141 279.6735 0046502 198.5794 161.2375  1.00255802 25584
BEIDOU-3 M22 (C44)      
1 44793U 19078A   26280.84422625 -.00000041  00000+0  00000+0 0  9997
2 44793  53.8316 295.8524 0004964  38.1287 321.9408  1.86226959 46748
BEIDOU-3 M21 (C43)      
1 44794U 19078B   26280.98385053 -.00000042  00000+0  00000+0 0  9997
2 44794  53.8046 295.8063 0002880  26.1763 333.8720  1.86227503 46754
BEIDOU-3 M19 (C41)      
1 44864U 19090A   26280.72018965 -.00000033  00000+0  00000+0 0  9996
2 44864  56.6625  59.0787 0016065 291.0852  90.3363  1.86231055 46330
BEIDOU-3 M20 (C42)      
1 44865U 19090B   26280.46113601 -.00000030  00000+0  00000+0 0  9998
2 44865  56.6639  59.1220 0013232 305.8287 351.4818  1.86231114 46307
BEIDOU-3 G2 (C60)       
1 45344U 20017A   26280.73656722 -.00000154  00000+0  00000+0 0  9995
2 45344   2.6345  48.7741 0002620 161.2209 151.6265  1.00271747 24386
BEIDOU-3 G3 (C61)       
1 45807U 20040A   26280.63590384 -.00000367  00000+0  00000+0 0  9991
2 45807   2.7196  67.3584 0003234 273.0928  15.2543  1.00266302 23192
BEIDOU-3 G4 (C62)       
1 56564U 23066A   26280.64003029 -.00000297  00000+0  00000+0 0  9992
2 56564   0.4471   4.7574 0005732 208.9192 173.1051  1.00271642 12520
BEIDOU-3 M28 (C50)      
1 58654U 23207A   26279.98645959 -.00000028  00000+0  00000+0 0  9992
2 58654  55.8573  58.5393 0000108 285.3274  74.6676  1.86229545 18924
BEIDOU-3 M26 (C48)      
1 58655U 23207B   26279.78398881 -.00000026  00000+0  00000+0 0  9998
2 58655  55.8592  58.5328 0001688 243.6132 116.3666  1.86229414 18904
BEIDOU-3 M25 (C47)      
1 61186U 24168B   26280.37052814 -.00000037  00000+0  00000+0 0  9990
2 61186  54.3710 298.3319 0004829 291.7898 219.2751  1.86229958 13872
BEIDOU-3 M27 (C49)      
1 61187U 24168C   26280.71801424 -.00000040  00000+0  00000+0 0  9992
2 61187  54.3660 298.3022 0001326 325.2447 193.8547  1.86230104 11356
