COSMOS 2433 (720)       
1 32275U 07052A   26229.38842192 -.00000075  00000+0  00000+0 0  9992
2 32275  65.5381 313.8730 0004713 215.5796 144.4453  2.13104078146365
COSMOS 2432 (719)       
1 32276U 07052B   26228.52550064 -.00000071  00000+0  00000+0 0  9998
2 32276  65.5549 314.0313 0007866 312.3701  49.3083  2.13103014146378
COSMOS 2434 (721)       
1 32393U 07065A   26229.16874326  .00000049  00000+0  00000+0 0  9997
2 32393  64.3204 189.8593 0001164 357.4229  83.6000  2.13101217145070
COSMOS 2436 (723)       
1 32395U 07065C   26229.83317786  .00000052  00000+0  00000+0 0  9999
2 32395  64.3290 189.9098 0017339 355.6612   7.1323  2.13099942145042
COSMOS 2456 (730)       
1 36111U 09070A   26229.59431145 -.00000027  00000+0  00000+0 0  9999
2 36111  65.0493  68.8784 0002471 353.6755 212.3205  2.13103481129730
COSMOS 2457 (733)       
1 36112U 09070B   26227.51527321 -.00000017  00000+0  00000+0 0  9991
2 36112  65.0337  68.7921 0005261 125.1909  52.6979  2.13100886129697
COSMOS 2460 (732)       
1 36402U 10007C   26229.24307719 -.00000073  00000+0  00000+0 0  9996
2 36402  65.3813 312.3996 0002061 186.1475 239.1997  2.13101512128037
COSMOS 2476 (744)       
1 37867U 11064A   26229.15520402 -.00000025  00000+0  00000+0 0  9999
2 37867  65.3066  70.8141 0022010 232.4965 264.9466  2.13103554115060
COSMOS 2477 (745)       
1 37868U 11064B   26229.91048485 -.00000025  00000+0  00000+0 0  9990
2 37868  65.3134  70.8686 0018998 232.9563 304.0710  2.13102757115073
COSMOS 2475 (743)       
1 37869U 11064C   26227.63363328 -.00000016  00000+0  00000+0 0  9994
2 37869  65.3187  70.9675 0024305 248.1540 297.0175  2.13101555115031
COSMOS 2485 (747)       
1 39155U 13019A   26228.91371341 -.00000023  00000+0  00000+0 0  9990
2 39155  65.4556  71.5674 0022613 227.6803 132.1929  2.13103013103575
COSMOS 2492 (754)       
1 39620U 14012A   26229.34187064 -.00000073  00000+0  00000+0 0  9991
2 39620  65.2576 311.8564 0010952 310.4847  49.4785  2.13103217 96546
COSMOS 2500 (755)       
1 40001U 14032A   26229.04160238 -.00000071  00000+0  00000+0 0  9997
2 40001  65.1932 311.6087 0009150 197.8243 162.2026  2.13105820 94754
COSMOS 2501 (702K)      
1 40315U 14075A   26229.77360681  .00000050  00000+0  00000+0 0  9992
2 40315  63.6185 188.2408 0022498 211.7681 148.0780  2.13101280 91169
COSMOS 2514 (751)       
1 41330U 16008A   26229.28903439 -.00000072  00000+0  00000+0 0  9993
2 41330  64.9812 310.9083 0013206 205.6015 154.3927  2.13102475 81924
COSMOS 2522 (752)       
1 42939U 17055A   26229.59579091  .00000051  00000+0  00000+0 0  9995
2 42939  64.0812 189.7947 0010382 239.4484 120.4300  2.13101903 69288
COSMOS 2527 (756)       
1 43508U 18053A   26228.61948455 -.00000021  00000+0  00000+0 0  9991
2 43508  65.6130  71.8925 0006546 218.1932 141.8268  2.13101940 63563
COSMOS 2529 (757)       
1 43687U 18086A   26229.65402464  .00000052  00000+0  00000+0 0  9998
2 43687  64.2975 190.5194 0011595 255.8104 104.0418  2.13101901 60594
COSMOS 2534 (758)       
1 44299U 19030A   26229.19731824  .00000050  00000+0  00000+0 0  9990
2 44299  64.3712 190.5627 0012768 275.3892 228.7093  2.13102227 56229
COSMOS 2544 (759)       
1 44850U 19088A   26229.50245556 -.00000024  00000+0  00000+0 0  9995
2 44850  65.6020  71.6855 0011767 249.1352 110.8027  2.13102754 52025
COSMOS 2545 (760)       
1 45358U 20018A   26229.22812803 -.00000072  00000+0  00000+0 0  9991
2 45358  64.3143 310.2722 0010947 232.0194 127.9418  2.13102419 49960
COSMOS 2547 (705K)      
1 46805U 20075A   26228.01033687  .00000040  00000+0  00000+0 0  9997
2 46805  64.6021 190.4794 0009130 238.6637 121.2216  2.13099794 45183
COSMOS 2557 (706K)      
1 52984U 22075A   26229.11277168 -.00000074  00000+0  00000+0 0  9998
2 52984  64.2585 312.3376 0011757 269.4203  90.5030  2.13102159 32019
COSMOS 2559 (707K)      
1 54031U 22130A   26227.52476465 -.00000066  00000+0  00000+0 0  9990
2 54031  64.2322 312.4752 0013428 184.5982 175.4478  2.13101741 29954
COSMOS 2564 (761)       
1 54377U 22161A   26229.71404683  .00000053  00000+0  00000+0 0  9998
2 54377  64.7443 190.6701 0011684 222.5974 137.2935  2.13102045 28942
COSMOS 2569 (703K)      
1 57517U 23114A   26227.84916846 -.00000018  00000+0  00000+0 0  9999
2 57517  65.3383  70.6095 0008822 292.7230  67.2513  2.13103878 23537
COSMOS 2584 (704K)      
1 63130U 25042A   26229.61298435 -.00000026  00000+0  00000+0 0  9992
2 63130  65.1221  70.7149 0005960 205.0468 154.9869  2.13103740 11358
COSMOS 2596 (708K)      
1 65590U 25206B   26228.52524064 -.00000071  00000+0  00000+0 0  9995
2 65590  64.5954 312.8834 0011708 303.8161  57.4307  2.13100955  7209
