GPS BIIR-5  (PRN 22)    
1 26407U 00040A   26248.17833897  .00000043  00000+0  00000+0 0  9996
2 26407  54.8409 211.9869 0118653 303.6116 136.4553  2.00558176191553
GPS BIIR-8  (PRN 16)    
1 27663U 03005A   26247.89412041  .00000047  00000+0  00000+0 0  9991
2 27663  54.8709 211.8040 0149917  53.5362 317.4404  2.00556160172918
GPS BIIR-11 (PRN 19)    
1 28190U 04009A   26247.30215433  .00000036  00000+0  00000+0 0  9992
2 28190  54.7687 272.4840 0117888 176.1597 280.1406  2.00573971164539
GPS BIIR-13 (PRN 02)    
1 28474U 04045A   26248.15486057 -.00000067  00000+0  00000+0 0  9998
2 28474  55.0837 321.6719 0171736 318.3360  98.4432  2.00559261160033
GPS BIIRM-1 (PRN 17)    
1 28874U 05038A   26247.37724626  .00000041  00000+0  00000+0 0  9996
2 28874  54.8187 269.9749 0128709 297.2841 243.4888  2.00560142153422
GPS BIIRM-2 (PRN 31)    
1 29486U 06042A   26246.78316850 -.00000003  00000+0  00000+0 0  9991
2 29486  54.7145 148.2174 0108570  56.7871 314.9462  2.00565614145973
GPS BIIRM-3 (PRN 12)    
1 29601U 06052A   26247.19496897  .00000054  00000+0  00000+0 0  9992
2 29601  54.9256 210.8762 0085282  91.1246 269.8376  2.00562352144998
GPS BIIRM-4 (PRN 15)    
1 32260U 07047A   26247.50274573  .00000003  00000+0  00000+0 0  9996
2 32260  54.1585  76.7978 0168947  89.2275 272.7696  2.00551752138407
GPS BIIRM-5 (PRN 29)    
1 32384U 07062A   26247.56485727  .00000040  00000+0  00000+0 0  9992
2 32384  54.9732 270.9552 0036072 169.8683   4.7186  2.00564320137101
GPS BIIRM-6 (PRN 07)    
1 32711U 08012A   26247.90946786 -.00000015  00000+0  00000+0 0  9990
2 32711  54.5027 146.7389 0211363 248.4880 109.2941  2.00552123135350
GPS BIIRM-8 (PRN 05)    
1 35752U 09043A   26247.89739391 -.00000059  00000+0  00000+0 0  9991
2 35752  56.2579  24.3273 0051834  85.8471 274.8147  2.00577287124955
GPS BIIF-1  (PRN 25)    
1 36585U 10022A   26246.47335867  .00000054  00000+0  00000+0 0  9992
2 36585  54.2627 205.4106 0128546  66.3544 106.0873  2.00566118119169
GPS BIIF-3  (PRN 24)    
1 38833U 12053A   26245.09646050  .00000014  00000+0  00000+0 0  9998
2 38833  53.5947 140.4467 0184864  67.1359 294.8715  2.00556754100986
GPS BIIF-4  (PRN 27)    
1 39166U 13023A   26243.46856440  .00000033  00000+0  00000+0 0  9992
2 39166  54.4507 265.9012 0141952  51.1456 310.1602  2.00563176 97392
GPS BIIF-5  (PRN 30)    
1 39533U 14008A   26247.95751972 -.00000016  00000+0  00000+0 0  9998
2 39533  53.6614 146.0644 0083673 231.6120 127.6817  2.00564913 91289
GPS BIIF-6  (PRN 06)    
1 39741U 14026A   26247.23872921 -.00000074  00000+0  00000+0 0  9992
2 39741  56.4538 328.4383 0039052 324.2917  35.5010  2.00555181 90128
GPS BIIF-7  (PRN 09)    
1 40105U 14045A   26247.82739882  .00000011  00000+0  00000+0 0  9992
2 40105  55.4092  85.2922 0036214 119.6190 240.8113  2.00563516 87673
GPS BIIF-8  (PRN 03)    
1 40294U 14068A   26247.69790050 -.00000051  00000+0  00000+0 0  9990
2 40294  57.0405  27.8983 0067177  73.6637 287.0845  2.00556193 86806
GPS BIIF-9  (PRN 26)    
1 40534U 15013A   26246.83691248  .00000043  00000+0  00000+0 0  9992
2 40534  53.1595 200.9268 0112331  40.8831 319.9371  2.00571253 83401
GPS BIIF-10 (PRN 08)    
1 40730U 15033A   26247.99712130  .00000048  00000+0  00000+0 0  9999
2 40730  53.9264 263.7902 0116823  30.4747 330.2419  2.00551977 81591
GPS BIIF-11 (PRN 10)    
1 41019U 15062A   26247.55061617 -.00000051  00000+0  00000+0 0  9996
2 41019  57.0113  27.7602 0115370 230.9729 128.0074  2.00566807 79425
GPS BIIF-12 (PRN 32)    
1 41328U 16007A   26247.63972873  .00000011  00000+0  00000+0 0  9998
2 41328  55.5775  86.3095 0097280 247.3335 111.7028  2.00572904 77438
GPS BIII-1  (PRN 04)    
1 43873U 18109A   26248.02756125  .00000013  00000+0  00000+0 0  9996
2 43873  55.7343  89.0367 0039746 196.1922 336.2619  2.00564604 56677
GPS BIII-2  (PRN 18)    
1 44506U 19056A   26247.65810858 -.00000076  00000+0  00000+0 0  9994
2 44506  55.5926 327.9822 0065622 199.7143 331.4423  2.00570822 51665
GPS BIII-3  (PRN 23)    
1 45854U 20041A   26247.75133443 -.00000055  00000+0  00000+0 0  9993
2 45854  56.7195  25.8629 0067769 205.4026 327.6126  2.00556356 45634
GPS BIII-4  (PRN 14)    
1 46826U 20078A   26248.17400823  .00000035  00000+0  00000+0 0  9996
2 46826  53.9697 207.5370 0075932 208.3491 249.1984  2.00564854 43114
GPS BIII-5  (PRN 11)    
1 48859U 21054A   26247.29491447 -.00000077  00000+0  00000+0 0  9990
2 48859  55.1306 329.2780 0028319 230.2117 138.6884  2.00563897 38342
GPS BIII-6  (PRN 28)    
1 55268U 23009A   26246.46774711  .00000001  00000+0  00000+0 0  9996
2 55268  55.1265 145.4409 0005823 328.9637 201.9505  2.00566017 26811
GPS BIII-7  (PRN 01)    
1 62339U 24242A   26246.62203213 -.00000077  00000+0  00000+0 0  9999
2 62339  54.8101 331.0001 0018932   2.4294   2.9573  2.00573293 12837
GPS BIII-8  (PRN 21)    
1 64202U 25116A   26246.37094750 -.00000052  00000+0  00000+0 0  9990
2 64202  55.2862  27.9909 0008802 336.7252  30.2943  2.00569957  9447
GPS BIII-9  (PRN 20)    
1 67588U 26017A   26245.97318630  .00000007  00000+0  00000+0 0  9991
2 67588  55.1422  85.6336 0020767 262.6773  97.1554  2.00569136433172
GPS BIII-10 (PRN 13)    
1 68791U 26087A   26247.43174022  .00000044  00000+0  00000+0 0  9994
2 68791  54.9566 204.6564 0021019 103.8443  75.8645  2.00576743  2428
